SHIJIAN-29B (SJ-29B)    
1 67403U 25315C   26066.76793531 -.00000068  00000+0  00000+0 0  9990
2 67403   3.1399  97.7100 0004196 319.3057  98.0785  1.00273171   671
LUCH (OLYMP-K 1) DEB    
1 67745U 14058D   26057.46615942 -.00000221  00000+0  00000+0 0  9998
2 67745   1.5795  85.6956 0520769 329.0115  28.4425  0.97993456   262
OBJECT A                
1 67756U 26028A   26064.32694001  .00000004  00000+0  00000+0 0  9994
2 67756   0.4806 289.7424 0042016 229.1663 201.2342  0.99523939   215
JAM-E JAM 1             
1 67757U 26028B   26065.58849579  .00000151  00000+0  00000+0 0  9999
2 67757   0.5003 285.7022 0004514 129.9316 355.2368  1.00260970    99
UNKNOWN                 
1 83903U          26066.59420731 -.00000293  00000+0  00000+0 0  9997
2 83903   5.9757 289.8760 0122146 253.7944 304.9177  0.99113353 44506
UNKNOWN                 
1 83934U          26065.80594341 -.00000243  00000+0  00000+0 0  9998
2 83934   5.5945 296.9645 0224256 275.8166 296.6474  1.02664015 46142
UNKNOWN                 
1 84407U          26065.98993335  .00000040  00000+0  11810-1 0  9996
2 84407  19.4486 297.7244 7210526 107.0166 337.4076  2.05796842 77609
UNKNOWN                 
1 84575U          26062.33697389 -.00000072  00000+0  51095-2 0  9994
2 84575  18.0132 131.5702 7115404  71.7416 349.0642  2.19867114 67238
