[{"OBJECT_NAME":"SHIJIAN-29B (SJ-29B)","OBJECT_ID":"2025-315C","EPOCH":"2026-03-07T18:25:49.610784","MEAN_MOTION":1.00273171,"ECCENTRICITY":0.0004196,"INCLINATION":3.1399,"RA_OF_ASC_NODE":97.71,"ARG_OF_PERICENTER":319.3057,"MEAN_ANOMALY":98.0785,"EPHEMERIS_TYPE":0,"CLASSIFICATION_TYPE":"U","NORAD_CAT_ID":67403,"ELEMENT_SET_NO":999,"REV_AT_EPOCH":67,"BSTAR":0,"MEAN_MOTION_DOT":-6.8e-7,"MEAN_MOTION_DDOT":0},{"OBJECT_NAME":"LUCH (OLYMP-K 1) DEB","OBJECT_ID":"2014-058D","EPOCH":"2026-02-26T11:11:16.173888","MEAN_MOTION":0.97993456,"ECCENTRICITY":0.05207694,"INCLINATION":1.5795,"RA_OF_ASC_NODE":85.6956,"ARG_OF_PERICENTER":329.0115,"MEAN_ANOMALY":28.4425,"EPHEMERIS_TYPE":0,"CLASSIFICATION_TYPE":"U","NORAD_CAT_ID":67745,"ELEMENT_SET_NO":999,"REV_AT_EPOCH":26,"BSTAR":0,"MEAN_MOTION_DOT":-2.21e-6,"MEAN_MOTION_DDOT":0},{"OBJECT_NAME":"OBJECT A","OBJECT_ID":"2026-028A","EPOCH":"2026-03-05T07:50:47.616864","MEAN_MOTION":0.99523939,"ECCENTRICITY":0.0042016,"INCLINATION":0.4806,"RA_OF_ASC_NODE":289.7424,"ARG_OF_PERICENTER":229.1663,"MEAN_ANOMALY":201.2342,"EPHEMERIS_TYPE":0,"CLASSIFICATION_TYPE":"U","NORAD_CAT_ID":67756,"ELEMENT_SET_NO":999,"REV_AT_EPOCH":21,"BSTAR":0,"MEAN_MOTION_DOT":4.0e-8,"MEAN_MOTION_DDOT":0},{"OBJECT_NAME":"JAM-E JAM 1","OBJECT_ID":"2026-028B","EPOCH":"2026-03-06T14:07:26.036256","MEAN_MOTION":1.0026097,"ECCENTRICITY":0.00045148,"INCLINATION":0.5003,"RA_OF_ASC_NODE":285.7022,"ARG_OF_PERICENTER":129.9316,"MEAN_ANOMALY":355.2368,"EPHEMERIS_TYPE":0,"CLASSIFICATION_TYPE":"U","NORAD_CAT_ID":67757,"ELEMENT_SET_NO":999,"REV_AT_EPOCH":9,"BSTAR":0,"MEAN_MOTION_DOT":1.51e-6,"MEAN_MOTION_DDOT":0},{"OBJECT_NAME":"UNKNOWN","OBJECT_ID":"","EPOCH":"2026-03-07T14:15:39.511584","MEAN_MOTION":0.99113353,"ECCENTRICITY":0.0122146,"INCLINATION":5.9757,"RA_OF_ASC_NODE":289.876,"ARG_OF_PERICENTER":253.7944,"MEAN_ANOMALY":304.9177,"EPHEMERIS_TYPE":0,"CLASSIFICATION_TYPE":"U","NORAD_CAT_ID":83903,"ELEMENT_SET_NO":999,"REV_AT_EPOCH":4450,"BSTAR":0,"MEAN_MOTION_DOT":-2.93e-6,"MEAN_MOTION_DDOT":0},{"OBJECT_NAME":"UNKNOWN","OBJECT_ID":"","EPOCH":"2026-03-06T19:20:33.510624","MEAN_MOTION":1.02664015,"ECCENTRICITY":0.0224256,"INCLINATION":5.5945,"RA_OF_ASC_NODE":296.9645,"ARG_OF_PERICENTER":275.8166,"MEAN_ANOMALY":296.6474,"EPHEMERIS_TYPE":0,"CLASSIFICATION_TYPE":"U","NORAD_CAT_ID":83934,"ELEMENT_SET_NO":999,"REV_AT_EPOCH":4614,"BSTAR":0,"MEAN_MOTION_DOT":-2.43e-6,"MEAN_MOTION_DDOT":0},{"OBJECT_NAME":"UNKNOWN","OBJECT_ID":"","EPOCH":"2026-03-06T23:45:30.241440","MEAN_MOTION":2.05796842,"ECCENTRICITY":0.7210526,"INCLINATION":19.4486,"RA_OF_ASC_NODE":297.7244,"ARG_OF_PERICENTER":107.0166,"MEAN_ANOMALY":337.4076,"EPHEMERIS_TYPE":0,"CLASSIFICATION_TYPE":"U","NORAD_CAT_ID":84407,"ELEMENT_SET_NO":999,"REV_AT_EPOCH":7760,"BSTAR":0.01181,"MEAN_MOTION_DOT":4.0e-7,"MEAN_MOTION_DDOT":0},{"OBJECT_NAME":"UNKNOWN","OBJECT_ID":"","EPOCH":"2026-03-03T08:05:14.544096","MEAN_MOTION":2.19867114,"ECCENTRICITY":0.7115404,"INCLINATION":18.0132,"RA_OF_ASC_NODE":131.5702,"ARG_OF_PERICENTER":71.7416,"MEAN_ANOMALY":349.0642,"EPHEMERIS_TYPE":0,"CLASSIFICATION_TYPE":"U","NORAD_CAT_ID":84575,"ELEMENT_SET_NO":999,"REV_AT_EPOCH":6723,"BSTAR":0.0051095,"MEAN_MOTION_DOT":-7.2e-7,"MEAN_MOTION_DDOT":0}]
